OBJECT_NAME,OBJECT_ID,EPOCH,MEAN_MOTION,ECCENTRICITY,INCLINATION,RA_OF_ASC_NODE,ARG_OF_PERICENTER,MEAN_ANOMALY,EPHEMERIS_TYPE,CLASSIFICATION_TYPE,NORAD_CAT_ID,ELEMENT_SET_NO,REV_AT_EPOCH,BSTAR,MEAN_MOTION_DOT,MEAN_MOTION_DDOT
ONEWEB-0053,2020-008AC,2026-06-10T04:13:00.017760,13.10374602,.00022441,87.8840,37.6810,73.1735,286.9638,0,U,45157,999,30699,.15911724E-2,.568E-5,0
ONEWEB-0054,2020-008AD,2026-06-10T03:13:12.765792,13.10369595,.0001871,87.8847,37.6714,83.2280,276.9060,0,U,45158,999,30710,-.10345316E-2,-.348E-5,0
ONEWEB-0056,2020-008AE,2026-06-10T04:22:23.935008,13.10374957,.00019379,87.8846,37.6557,89.3953,270.7396,0,U,45159,999,30726,.18812139E-2,.669E-5,0
ONEWEB-0057,2020-008AF,2026-06-10T02:56:41.759520,13.10369192,.00022332,87.8839,37.6799,74.0261,286.1112,0,U,45160,999,30742,.69675175E-3,.256E-5,0
ONEWEB-0058,2020-008AG,2026-06-10T04:27:32.599872,13.10372131,.00016183,87.8834,37.6740,79.3299,280.8010,0,U,45161,999,30750,.18164845E-2,.647E-5,0
ONEWEB-0059,2020-008AH,2026-06-10T04:22:45.877152,13.10374233,.00017143,87.8834,37.6735,74.5402,285.5915,0,U,45162,999,30740,.18095018E-2,.644E-5,0
ONEWEB-0062,2020-008AJ,2026-06-10T03:05:51.193536,13.10369116,.00014022,87.8843,37.6709,88.4446,271.6842,0,U,45163,999,30726,-.17302594E-3,-.48E-6,0
ONEWEB-0065,2020-008AK,2026-06-09T22:23:47.723136,13.10375713,.0002167,87.8848,37.7179,81.6326,278.5047,0,U,45164,999,30693,-.19416841E-3,-.55E-6,0
ONEWEB-0066,2020-020A,2026-06-10T03:03:26.073504,13.11420080,.00017289,87.8894,22.4767,78.4918,281.6404,0,U,45424,999,30175,.74041206E-3,.275E-5,0
ONEWEB-0067,2020-020B,2026-06-10T03:58:02.673408,13.11422131,.0001974,87.8911,22.3895,82.2161,277.9191,0,U,45425,999,30181,-.50637502E-3,-.167E-5,0
ONEWEB-0080,2020-020C,2026-06-10T03:57:21.216960,13.11415512,.00015253,87.8901,22.4645,89.9587,270.1715,0,U,45426,999,30178,-.53098609E-3,-.175E-5,0
ONEWEB-0090,2020-020D,2026-06-10T02:48:58.724640,13.11418793,.00017487,87.8904,22.4789,85.7870,274.3458,0,U,45427,999,30174,-.11990408E-2,-.412E-5,0
ONEWEB-0061,2020-020E,2026-06-10T03:34:59.268576,13.11416645,.00017605,87.8900,22.4571,83.3846,276.7482,0,U,45428,999,30170,.13150817E-2,.479E-5,0
ONEWEB-0081,2020-020F,2026-06-10T03:08:19.472352,13.11419952,.00018644,87.8898,22.4716,78.1641,281.9696,0,U,45429,999,30181,.90955658E-3,.335E-5,0
ONEWEB-0069,2020-020G,2026-06-09T21:41:21.323328,13.11420696,.00018276,87.8899,22.5195,81.3586,278.7749,0,U,45430,999,30171,.10119574E-2,.371E-5,0
ONEWEB-0031,2020-020H,2026-06-10T04:02:02.123232,13.11415948,.00016586,87.8888,22.4724,88.4548,271.6770,0,U,45431,999,30173,-.78339011E-3,-.265E-5,0
ONEWEB-0027,2020-020J,2026-06-10T06:31:09.048000,13.16054233,.00018632,87.9148,7.2387,97.7506,262.3836,0,U,45432,999,30544,-.19069999E-4,.6E-7,0
ONEWEB-0064,2020-020K,2026-06-10T02:09:43.415712,13.11414051,.00017413,87.8894,22.4795,89.4708,270.6620,0,U,45433,999,30175,-.52248347E-3,-.172E-5,0
ONEWEB-0018,2020-020L,2026-06-10T02:56:04.336224,13.11418912,.00016181,87.8861,22.4736,66.1652,293.9645,0,U,45434,999,30170,-.21765782E-2,-.759E-5,0
ONEWEB-0083,2020-020M,2026-06-10T02:41:40.091712,13.11418128,.00017254,87.8900,22.4680,84.3124,275.8201,0,U,45435,999,30174,-.99652058E-3,-.34E-5,0
ONEWEB-0095,2020-020N,2026-06-10T00:39:37.440288,13.11407477,.00022148,87.8910,22.4933,96.8125,263.3255,0,U,45436,999,30173,.60186721E-2,.2146E-4,0
ONEWEB-0092,2020-020P,2026-06-10T03:14:18.043584,13.11956180,.00021541,87.8901,22.4638,85.3067,274.8308,0,U,45437,999,30186,.12117906E-2,.446E-5,0
ONEWEB-0085,2020-020Q,2026-06-10T02:41:15.854784,13.11419175,.00017985,87.8896,22.4753,84.5292,275.6042,0,U,45438,999,30174,-.11137838E-2,-.382E-5,0
ONEWEB-0096,2020-020R,2026-06-10T02:43:56.491392,13.11423901,.00018432,87.8904,22.4704,86.8776,273.2563,0,U,45439,999,30173,-.92303784E-3,-.314E-5,0
ONEWEB-0037,2020-020S,2026-06-10T03:35:41.867232,13.11911492,.00018984,87.8911,22.4368,85.6811,274.4534,0,U,45440,999,30177,.9984184E-3,.369E-5,0
ONEWEB-0042,2020-020T,2026-06-10T02:29:03.090336,13.11416060,.00018694,87.8900,22.4688,81.6513,278.4827,0,U,45441,999,30173,-.17525427E-2,-.608E-5,0
ONEWEB-0098,2020-020U,2026-06-10T02:23:09.154464,13.11416418,.00017248,87.8898,22.4787,85.5765,274.5560,0,U,45442,999,30171,-.12945612E-2,-.446E-5,0
ONEWEB-0055,2020-020V,2026-06-10T01:52:28.127712,13.11413362,.00017269,87.8897,22.4816,85.5758,274.5567,0,U,45443,999,30168,.93076319E-3,.343E-5,0
ONEWEB-0093,2020-020W,2026-06-10T03:13:24.460896,13.11419645,.00020261,87.8901,22.4634,73.1640,286.9710,0,U,45444,999,30175,.13429377E-2,.489E-5,0
ONEWEB-0029,2020-020X,2026-06-10T03:52:28.492896,13.11417879,.00017885,87.8889,22.4678,75.5383,284.5943,0,U,45445,999,30173,.22141602E-4,.21E-6,0
